[{"OBJECT_NAME":"KHALIFASAT","OBJECT_ID":"2018-084F","EPOCH":"2026-03-09T22:37:07.705056","MEAN_MOTION":15.0097364,"ECCENTRICITY":0.00062701,"INCLINATION":98.0864,"RA_OF_ASC_NODE":247.4233,"ARG_OF_PERICENTER":83.8573,"MEAN_ANOMALY":276.3364,"EPHEMERIS_TYPE":0,"CLASSIFICATION_TYPE":"U","NORAD_CAT_ID":43676,"ELEMENT_SET_NO":999,"REV_AT_EPOCH":40088,"BSTAR":0.00043724412,"MEAN_MOTION_DOT":5.516e-5,"MEAN_MOTION_DDOT":0},{"OBJECT_NAME":"STARLINK-5260","OBJECT_ID":"2023-010G","EPOCH":"2026-03-09T22:31:18.295680","MEAN_MOTION":14.98326116,"ECCENTRICITY":0.00029342,"INCLINATION":70.0038,"RA_OF_ASC_NODE":23.9446,"ARG_OF_PERICENTER":266.5327,"MEAN_ANOMALY":93.5496,"EPHEMERIS_TYPE":0,"CLASSIFICATION_TYPE":"U","NORAD_CAT_ID":55275,"ELEMENT_SET_NO":999,"REV_AT_EPOCH":17331,"BSTAR":0.00092187671,"MEAN_MOTION_DOT":0.00010923,"MEAN_MOTION_DDOT":0}]
